[{"OBJECT_NAME":"GRUS-1E","OBJECT_ID":"2021-022D","EPOCH":"2026-03-09T21:59:56.793984","MEAN_MOTION":14.99580708,"ECCENTRICITY":0.00128752,"INCLINATION":97.5572,"RA_OF_ASC_NODE":316.384,"ARG_OF_PERICENTER":314.1526,"MEAN_ANOMALY":45.8638,"EPHEMERIS_TYPE":0,"CLASSIFICATION_TYPE":"U","NORAD_CAT_ID":47935,"ELEMENT_SET_NO":999,"REV_AT_EPOCH":27107,"BSTAR":0.00017718433,"MEAN_MOTION_DOT":2.125e-5,"MEAN_MOTION_DDOT":0},{"OBJECT_NAME":"FORMOSAT-8A","OBJECT_ID":"2025-276A","EPOCH":"2026-03-09T17:53:55.297824","MEAN_MOTION":15.0113297,"ECCENTRICITY":0.00020333,"INCLINATION":97.6538,"RA_OF_ASC_NODE":144.453,"ARG_OF_PERICENTER":294.9162,"MEAN_ANOMALY":65.185,"EPHEMERIS_TYPE":0,"CLASSIFICATION_TYPE":"U","NORAD_CAT_ID":66666,"ELEMENT_SET_NO":999,"REV_AT_EPOCH":1514,"BSTAR":0.00021775611,"MEAN_MOTION_DOT":2.73e-5,"MEAN_MOTION_DDOT":0}]
